{
    "links": {
        "self": "http://www.neowsapp.com/rest/v1/neo/3843707?api_key=iIulBulltgU6a56xZRHN4H3l9WmuAYTsLGpBGhQ2"
    },
    "id": "3843707",
    "neo_reference_id": "3843707",
    "name": "(2019 QH6)",
    "designation": "2019 QH6",
    "nasa_jpl_url": "http://ssd.jpl.nasa.gov/sbdb.cgi?sstr=3843707",
    "absolute_magnitude_h": 26.9,
    "estimated_diameter": {
        "kilometers": {
            "estimated_diameter_min": 0.0110803882,
            "estimated_diameter_max": 0.0247765013
        },
        "meters": {
            "estimated_diameter_min": 11.0803882126,
            "estimated_diameter_max": 24.7765012606
        },
        "miles": {
            "estimated_diameter_min": 0.0068850319,
            "estimated_diameter_max": 0.0153953994
        },
        "feet": {
            "estimated_diameter_min": 36.3529808636,
            "estimated_diameter_max": 81.2877363957
        }
    },
    "is_potentially_hazardous_asteroid": false,
    "close_approach_data": [
        {
            "close_approach_date": "2019-08-20",
            "close_approach_date_full": "2019-Aug-20 12:21",
            "epoch_date_close_approach": 1566303660000,
            "relative_velocity": {
                "kilometers_per_second": "6.9380486662",
                "kilometers_per_hour": "24976.9751983036",
                "miles_per_hour": "15519.7210614126"
            },
            "miss_distance": {
                "astronomical": "0.0081662598",
                "lunar": "3.1766750622",
                "kilometers": "1221655.071946626",
                "miles": "759101.2617143988"
            },
            "orbiting_body": "Earth"
        },
        {
            "close_approach_date": "2019-08-20",
            "close_approach_date_full": "2019-Aug-20 19:31",
            "epoch_date_close_approach": 1566329460000,
            "relative_velocity": {
                "kilometers_per_second": "7.2156084967",
                "kilometers_per_hour": "25976.1905879574",
                "miles_per_hour": "16140.5946461672"
            },
            "miss_distance": {
                "astronomical": "0.0093063978",
                "lunar": "3.6201887442",
                "kilometers": "1392217.288252686",
                "miles": "865083.7084556268"
            },
            "orbiting_body": "Moon"
        }
    ],
    "orbital_data": {
        "orbit_id": "1",
        "orbit_determination_date": "2019-08-31 06:25:37",
        "first_observation_date": "2019-08-28",
        "last_observation_date": "2019-08-30",
        "data_arc_in_days": 2,
        "observations_used": 10,
        "orbit_uncertainty": "8",
        "minimum_orbit_intersection": ".00194622",
        "jupiter_tisserand_invariant": "4.545",
        "epoch_osculation": "2458724.5",
        "eccentricity": ".321024510477594",
        "semi_major_axis": "1.466763301386691",
        "inclination": "7.120045347638354",
        "ascending_node_longitude": "145.6491150190142",
        "orbital_period": "648.8412911609768",
        "perihelion_distance": ".995896330572529",
        "perihelion_argument": "157.4277565390992",
        "aphelion_distance": "1.937630272200853",
        "perihelion_time": "2458695.115084179628",
        "mean_anomaly": "16.30378621003852",
        "mean_motion": ".5548352191887314",
        "equinox": "J2000",
        "orbit_class": {
            "orbit_class_type": "APO",
            "orbit_class_description": "Near-Earth asteroid orbits which cross the Earth’s orbit similar to that of 1862 Apollo",
            "orbit_class_range": "a (semi-major axis) > 1.0 AU; q (perihelion) < 1.017 AU"
        }
    },
    "is_sentry_object": false
}